{
  "norad_id": 62122,
  "name": "STARLINK-32628",
  "history": [
    {
      "epoch": "2026-03-28T13:09:30.723264Z",
      "apogee_km": 483.61913761405503,
      "perigee_km": 482.38687686875437,
      "latitude_deg": -4.646999265285602e-05,
      "longitude_deg": 6.293599260130619,
      "height_km": 482.45933597062685,
      "semi_major_axis_km": 6861.140007241404,
      "eccentricity": 8.98e-05,
      "inclination_deg": 43.0033,
      "raan_deg": 29.6388,
      "arg_perigee_deg": 301.316,
      "mean_anomaly_deg": 58.7603,
      "mean_motion_rev_day": 15.27595392
    },
    {
      "epoch": "2026-03-29T03:16:55.692480Z",
      "apogee_km": 483.8235117367294,
      "perigee_km": 482.404056174546,
      "latitude_deg": -2.644008239637363e-05,
      "longitude_deg": 150.53384636456096,
      "height_km": 482.83984720346905,
      "semi_major_axis_km": 6861.250783955637,
      "eccentricity": 0.00010344,
      "inclination_deg": 43.0025,
      "raan_deg": 26.3131,
      "arg_perigee_deg": 274.0896,
      "mean_anomaly_deg": 85.9837,
      "mean_motion_rev_day": 15.27558397
    },
    {
      "epoch": "2026-03-30T20:04:59.239200Z",
      "apogee_km": 485.8260685024734,
      "perigee_km": 479.991846682894,
      "latitude_deg": -1.58671775363322e-05,
      "longitude_deg": -112.75695587508922,
      "height_km": 481.46404455126964,
      "semi_major_axis_km": 6861.045957592683,
      "eccentricity": 0.00042517,
      "inclination_deg": 43.0045,
      "raan_deg": 16.7127,
      "arg_perigee_deg": 294.8069,
      "mean_anomaly_deg": 65.234,
      "mean_motion_rev_day": 15.27626802
    },
    {
      "epoch": "2026-03-31T11:46:34.007232Z",
      "apogee_km": 483.4792858043256,
      "perigee_km": 482.6873637544386,
      "latitude_deg": -5.392180864988636e-06,
      "longitude_deg": 7.509401125711006,
      "height_km": 482.6740869812447,
      "semi_major_axis_km": 6861.220324779381,
      "eccentricity": 5.771e-05,
      "inclination_deg": 42.9972,
      "raan_deg": 13.0184,
      "arg_perigee_deg": 62.3387,
      "mean_anomaly_deg": 297.7523,
      "mean_motion_rev_day": 15.27568569
    },
    {
      "epoch": "2026-04-01T11:18:54.684864Z",
      "apogee_km": 483.88915044472833,
      "perigee_km": 482.12309220529824,
      "latitude_deg": 3.98196978368726e-06,
      "longitude_deg": 7.920440072389756,
      "height_km": 482.5843799502924,
      "semi_major_axis_km": 6861.1431213250125,
      "eccentricity": 0.0001287,
      "inclination_deg": 43.0045,
      "raan_deg": 7.4823,
      "arg_perigee_deg": 283.014,
      "mean_anomaly_deg": 77.0568,
      "mean_motion_rev_day": 15.27594352
    },
    {
      "epoch": "2026-04-02T10:51:14.901120Z",
      "apogee_km": 483.3800953938162,
      "perigee_km": 482.5787169975738,
      "latitude_deg": 1.3455674466419478e-05,
      "longitude_deg": 8.330406459008103,
      "height_km": 482.7741872522627,
      "semi_major_axis_km": 6861.116406195695,
      "eccentricity": 5.84e-05,
      "inclination_deg": 43.0029,
      "raan_deg": 1.9432,
      "arg_perigee_deg": 267.3559,
      "mean_anomaly_deg": 92.7226,
      "mean_motion_rev_day": 15.27603274
    },
    {
      "epoch": "2026-04-03T18:14:22.517376Z",
      "apogee_km": 483.41488187382674,
      "perigee_km": 482.6038943707508,
      "latitude_deg": 1.0090989183962189e-05,
      "longitude_deg": -111.12558579023836,
      "height_km": 483.11931008927485,
      "semi_major_axis_km": 6861.146388122288,
      "eccentricity": 5.91e-05,
      "inclination_deg": 43.0,
      "raan_deg": 354.5579,
      "arg_perigee_deg": 145.6834,
      "mean_anomaly_deg": 214.4056,
      "mean_motion_rev_day": 15.27593261
    },
    {
      "epoch": "2026-04-04T17:46:43.748832Z",
      "apogee_km": 483.8196602586404,
      "perigee_km": 482.18396476573616,
      "latitude_deg": -1.060407886225855e-05,
      "longitude_deg": -110.71879484639689,
      "height_km": 482.5354939947423,
      "semi_major_axis_km": 6861.1388125121875,
      "eccentricity": 0.0001192,
      "inclination_deg": 43.0016,
      "raan_deg": 349.0199,
      "arg_perigee_deg": 287.2856,
      "mean_anomaly_deg": 72.7865,
      "mean_motion_rev_day": 15.27595791
    },
    {
      "epoch": "2026-04-05T09:28:18.162624Z",
      "apogee_km": 485.04153356461666,
      "perigee_km": 480.83939805990485,
      "latitude_deg": 3.7312825837335227e-06,
      "longitude_deg": 9.550144483413373,
      "height_km": 482.6560928335267,
      "semi_major_axis_km": 6861.07746581226,
      "eccentricity": 0.00030623,
      "inclination_deg": 43.0065,
      "raan_deg": 345.3267,
      "arg_perigee_deg": 271.718,
      "mean_anomaly_deg": 88.3321,
      "mean_motion_rev_day": 15.27616279
    },
    {
      "epoch": "2026-04-06T01:09:50.615136Z",
      "apogee_km": 484.587975705248,
      "perigee_km": 481.1521205956751,
      "latitude_deg": 3.224779868557991e-05,
      "longitude_deg": 129.828793056451,
      "height_km": 482.77168948965317,
      "semi_major_axis_km": 6861.007048150462,
      "eccentricity": 0.00025039,
      "inclination_deg": 43.0045,
      "raan_deg": 341.635,
      "arg_perigee_deg": 265.8729,
      "mean_anomaly_deg": 94.1837,
      "mean_motion_rev_day": 15.27639797
    },
    {
      "epoch": "2026-04-07T08:32:59.008992Z",
      "apogee_km": 484.1619191236041,
      "perigee_km": 481.83174085226347,
      "latitude_deg": -1.659297300647265e-05,
      "longitude_deg": 10.369499713517438,
      "height_km": 482.82371453549246,
      "semi_major_axis_km": 6861.1338299879335,
      "eccentricity": 0.00016981,
      "inclination_deg": 43.0026,
      "raan_deg": 334.2497,
      "arg_perigee_deg": 267.5571,
      "mean_anomaly_deg": 92.5086,
      "mean_motion_rev_day": 15.27597455
    },
    {
      "epoch": "2026-04-08T01:48:42.363648Z",
      "apogee_km": 483.75598990567687,
      "perigee_km": 482.2868786617282,
      "latitude_deg": 1.5932701326222095e-05,
      "longitude_deg": 106.66756096280356,
      "height_km": 482.71285185419197,
      "semi_major_axis_km": 6861.158434283702,
      "eccentricity": 0.00010706,
      "inclination_deg": 43.0024,
      "raan_deg": 330.1873,
      "arg_perigee_deg": 276.6665,
      "mean_anomaly_deg": 83.4065,
      "mean_motion_rev_day": 15.27589238
    },
    {
      "epoch": "2026-04-08T23:46:53.554368Z",
      "apogee_km": 483.93453969872553,
      "perigee_km": 482.0614498451532,
      "latitude_deg": -2.1590568101175062e-05,
      "longitude_deg": 131.04752351843993,
      "height_km": 482.5902020748986,
      "semi_major_axis_km": 6861.134994771939,
      "eccentricity": 0.0001365,
      "inclination_deg": 43.0052,
      "raan_deg": 325.0162,
      "arg_perigee_deg": 281.3959,
      "mean_anomaly_deg": 78.6739,
      "mean_motion_rev_day": 15.27597066
    },
    {
      "epoch": "2026-04-09T23:19:14.137824Z",
      "apogee_km": 484.04574884498106,
      "perigee_km": 481.9068653826216,
      "latitude_deg": -3.056302921207924e-06,
      "longitude_deg": 131.45576155355536,
      "height_km": 482.7657153966528,
      "semi_major_axis_km": 6861.113307113801,
      "eccentricity": 0.00015587,
      "inclination_deg": 43.0025,
      "raan_deg": 319.4769,
      "arg_perigee_deg": 269.3409,
      "mean_anomaly_deg": 90.7264,
      "mean_motion_rev_day": 15.27604309
    },
    {
      "epoch": "2026-04-11T20:49:46.862400Z",
      "apogee_km": 483.89800138388364,
      "perigee_km": 482.18819530337714,
      "latitude_deg": -8.75376997183857e-07,
      "longitude_deg": 156.24481573938883,
      "height_km": 482.858761140866,
      "semi_major_axis_km": 6861.180098343631,
      "eccentricity": 0.0001246,
      "inclination_deg": 43.0027,
      "raan_deg": 308.7713,
      "arg_perigee_deg": 267.399,
      "mean_anomaly_deg": 92.6719,
      "mean_motion_rev_day": 15.27582003
    },
    {
      "epoch": "2026-04-13T05:47:04.050240Z",
      "apogee_km": 483.9323238146162,
      "perigee_km": 482.14855490393074,
      "latitude_deg": 1.545088809416997e-05,
      "longitude_deg": 12.811912082020266,
      "height_km": 482.78341738057014,
      "semi_major_axis_km": 6861.177439359273,
      "eccentricity": 0.00012999,
      "inclination_deg": 43.0022,
      "raan_deg": 301.0134,
      "arg_perigee_deg": 272.1775,
      "mean_anomaly_deg": 87.8928,
      "mean_motion_rev_day": 15.27582891
    },
    {
      "epoch": "2026-04-14T21:00:58.701024Z",
      "apogee_km": 483.9476713009399,
      "perigee_km": 482.1267156699896,
      "latitude_deg": 3.108826141850401e-05,
      "longitude_deg": 133.49252420525437,
      "height_km": 482.8267397101537,
      "semi_major_axis_km": 6861.1741934854645,
      "eccentricity": 0.0001327,
      "inclination_deg": 42.9997,
      "raan_deg": 291.7829,
      "arg_perigee_deg": 269.1854,
      "mean_anomaly_deg": 90.8846,
      "mean_motion_rev_day": 15.27583975
    },
    {
      "epoch": "2026-04-15T20:33:19.509984Z",
      "apogee_km": 484.0039119659468,
      "perigee_km": 482.0704330841281,
      "latitude_deg": 4.261370725125821e-05,
      "longitude_deg": 133.9004173532433,
      "height_km": 482.76043314755907,
      "semi_major_axis_km": 6861.174172525037,
      "eccentricity": 0.0001409,
      "inclination_deg": 43.0003,
      "raan_deg": 286.2442,
      "arg_perigee_deg": 273.1714,
      "mean_anomaly_deg": 86.8977,
      "mean_motion_rev_day": 15.27583982
    },
    {
      "epoch": "2026-04-16T20:05:39.607008Z",
      "apogee_km": 483.9112682584455,
      "perigee_km": 482.0491610463887,
      "latitude_deg": -1.4101764627767902e-05,
      "longitude_deg": 134.31111221817457,
      "height_km": 482.72763098624705,
      "semi_major_axis_km": 6861.117214652417,
      "eccentricity": 0.0001357,
      "inclination_deg": 43.0019,
      "raan_deg": 280.7054,
      "arg_perigee_deg": 271.8135,
      "mean_anomaly_deg": 88.2561,
      "mean_motion_rev_day": 15.27603004
    }
  ]
}